ONEWEB-0685             
1 54679U 22166AP  24321.15045382  .00000066  00000+0  12793-3 0  9994
2 54679  87.9321 359.1342 0002149  98.1514 261.9864 13.21828097 95522
ONEWEB-0712             
1 54680U 22166AQ  24321.10314642 -.00000048  00000+0 -15934-3 0  9991
2 54680  87.9093 343.9361 0002397  84.7526 275.3878 13.16593218 96456
ONEWEB-0714             
1 54681U 22166AR  24320.85396993  .00000033  00000+0  49339-4 0  9991
2 54681  87.9323 359.1815 0002108  98.7234 261.4139 13.21829091 95134
ONEWEB-0532             
1 55140U 23004A   24321.15907502  .00000063  00000+0  12800-3 0  9997
2 55140  87.9075 121.0098 0001343 113.0852 247.0421 13.17645915 91467
ONEWEB-0533             
1 55141U 23004B   24320.89357546 -.00000377  00000+0 -10838-2 0  9993
2 55141  87.8864 105.8066 0001646  97.3252 262.8064 13.12444042 92206
ONEWEB-0541             
1 55142U 23004C   24320.92907003  .00000236  00000+0  62938-3 0  9998
2 55142  87.8882 136.2620 0001504  90.5193 269.6108 13.11418673 90159
ONEWEB-0543             
1 55143U 23004D   24320.90945983  .00001834  00000+0  46194-2 0  9996
2 55143  87.9092  90.6103 0001818  90.7261 269.4079 13.18680847 93484
ONEWEB-0544             
1 55144U 23004E   24320.90311921 -.00000106  00000+0 -30281-3 0  9990
2 55144  87.9091  90.5982 0001527  91.9521 268.1786 13.18683125 93480
