<?xml version="1.0" encoding="UTF-8"?>
<ndm xmlns:xsi="http://www.w3.org/2001/XMLSchema-instance" xsi:noNamespaceSchemaLocation="https://sanaregistry.org/r/ndmxml_unqualified/ndmxml-2.0.0-master-2.0.xsd">
<omm id="CCSDS_OMM_VERS" version="2.0">
<header><CREATION_DATE/><ORIGINATOR/></header><body><segment><metadata><OBJECT_NAME>ONEWEB-0685</OBJECT_NAME><OBJECT_ID>2022-166AP</OBJECT_ID><CENTER_NAME>EARTH</CENTER_NAME><REF_FRAME>TEME</REF_FRAME><TIME_SYSTEM>UTC</TIME_SYSTEM><MEAN_ELEMENT_THEORY>SGP4</MEAN_ELEMENT_THEORY></metadata><data><meanElements><EPOCH>2024-11-16T03:36:39.210048</EPOCH><MEAN_MOTION>13.21828097</MEAN_MOTION><ECCENTRICITY>.0002149</ECCENTRICITY><INCLINATION>87.9321</INCLINATION><RA_OF_ASC_NODE>359.1342</RA_OF_ASC_NODE><ARG_OF_PERICENTER>98.1514</ARG_OF_PERICENTER><MEAN_ANOMALY>261.9864</MEAN_ANOMALY></meanElements><tleParameters><EPHEMERIS_TYPE>0</EPHEMERIS_TYPE><CLASSIFICATION_TYPE>U</CLASSIFICATION_TYPE><NORAD_CAT_ID>54679</NORAD_CAT_ID><ELEMENT_SET_NO>999</ELEMENT_SET_NO><REV_AT_EPOCH>9552</REV_AT_EPOCH><BSTAR>.12793E-3</BSTAR><MEAN_MOTION_DOT>.66E-6</MEAN_MOTION_DOT><MEAN_MOTION_DDOT>0</MEAN_MOTION_DDOT></tleParameters></data></segment></body></omm>
<omm id="CCSDS_OMM_VERS" version="2.0">
<header><CREATION_DATE/><ORIGINATOR/></header><body><segment><metadata><OBJECT_NAME>ONEWEB-0712</OBJECT_NAME><OBJECT_ID>2022-166AQ</OBJECT_ID><CENTER_NAME>EARTH</CENTER_NAME><REF_FRAME>TEME</REF_FRAME><TIME_SYSTEM>UTC</TIME_SYSTEM><MEAN_ELEMENT_THEORY>SGP4</MEAN_ELEMENT_THEORY></metadata><data><meanElements><EPOCH>2024-11-16T02:28:31.850688</EPOCH><MEAN_MOTION>13.16593218</MEAN_MOTION><ECCENTRICITY>.0002397</ECCENTRICITY><INCLINATION>87.9093</INCLINATION><RA_OF_ASC_NODE>343.9361</RA_OF_ASC_NODE><ARG_OF_PERICENTER>84.7526</ARG_OF_PERICENTER><MEAN_ANOMALY>275.3878</MEAN_ANOMALY></meanElements><tleParameters><EPHEMERIS_TYPE>0</EPHEMERIS_TYPE><CLASSIFICATION_TYPE>U</CLASSIFICATION_TYPE><NORAD_CAT_ID>54680</NORAD_CAT_ID><ELEMENT_SET_NO>999</ELEMENT_SET_NO><REV_AT_EPOCH>9645</REV_AT_EPOCH><BSTAR>-.15934E-3</BSTAR><MEAN_MOTION_DOT>-.48E-6</MEAN_MOTION_DOT><MEAN_MOTION_DDOT>0</MEAN_MOTION_DDOT></tleParameters></data></segment></body></omm>
<omm id="CCSDS_OMM_VERS" version="2.0">
<header><CREATION_DATE/><ORIGINATOR/></header><body><segment><metadata><OBJECT_NAME>ONEWEB-0714</OBJECT_NAME><OBJECT_ID>2022-166AR</OBJECT_ID><CENTER_NAME>EARTH</CENTER_NAME><REF_FRAME>TEME</REF_FRAME><TIME_SYSTEM>UTC</TIME_SYSTEM><MEAN_ELEMENT_THEORY>SGP4</MEAN_ELEMENT_THEORY></metadata><data><meanElements><EPOCH>2024-11-15T20:29:43.001952</EPOCH><MEAN_MOTION>13.21829091</MEAN_MOTION><ECCENTRICITY>.0002108</ECCENTRICITY><INCLINATION>87.9323</INCLINATION><RA_OF_ASC_NODE>359.1815</RA_OF_ASC_NODE><ARG_OF_PERICENTER>98.7234</ARG_OF_PERICENTER><MEAN_ANOMALY>261.4139</MEAN_ANOMALY></meanElements><tleParameters><EPHEMERIS_TYPE>0</EPHEMERIS_TYPE><CLASSIFICATION_TYPE>U</CLASSIFICATION_TYPE><NORAD_CAT_ID>54681</NORAD_CAT_ID><ELEMENT_SET_NO>999</ELEMENT_SET_NO><REV_AT_EPOCH>9513</REV_AT_EPOCH><BSTAR>.49339E-4</BSTAR><MEAN_MOTION_DOT>.33E-6</MEAN_MOTION_DOT><MEAN_MOTION_DDOT>0</MEAN_MOTION_DDOT></tleParameters></data></segment></body></omm>
<omm id="CCSDS_OMM_VERS" version="2.0">
<header><CREATION_DATE/><ORIGINATOR/></header><body><segment><metadata><OBJECT_NAME>ONEWEB-0532</OBJECT_NAME><OBJECT_ID>2023-004A</OBJECT_ID><CENTER_NAME>EARTH</CENTER_NAME><REF_FRAME>TEME</REF_FRAME><TIME_SYSTEM>UTC</TIME_SYSTEM><MEAN_ELEMENT_THEORY>SGP4</MEAN_ELEMENT_THEORY></metadata><data><meanElements><EPOCH>2024-11-16T03:49:04.081728</EPOCH><MEAN_MOTION>13.17645915</MEAN_MOTION><ECCENTRICITY>.0001343</ECCENTRICITY><INCLINATION>87.9075</INCLINATION><RA_OF_ASC_NODE>121.0098</RA_OF_ASC_NODE><ARG_OF_PERICENTER>113.0852</ARG_OF_PERICENTER><MEAN_ANOMALY>247.0421</MEAN_ANOMALY></meanElements><tleParameters><EPHEMERIS_TYPE>0</EPHEMERIS_TYPE><CLASSIFICATION_TYPE>U</CLASSIFICATION_TYPE><NORAD_CAT_ID>55140</NORAD_CAT_ID><ELEMENT_SET_NO>999</ELEMENT_SET_NO><REV_AT_EPOCH>9146</REV_AT_EPOCH><BSTAR>.128E-3</BSTAR><MEAN_MOTION_DOT>.63E-6</MEAN_MOTION_DOT><MEAN_MOTION_DDOT>0</MEAN_MOTION_DDOT></tleParameters></data></segment></body></omm>
<omm id="CCSDS_OMM_VERS" version="2.0">
<header><CREATION_DATE/><ORIGINATOR/></header><body><segment><metadata><OBJECT_NAME>ONEWEB-0533</OBJECT_NAME><OBJECT_ID>2023-004B</OBJECT_ID><CENTER_NAME>EARTH</CENTER_NAME><REF_FRAME>TEME</REF_FRAME><TIME_SYSTEM>UTC</TIME_SYSTEM><MEAN_ELEMENT_THEORY>SGP4</MEAN_ELEMENT_THEORY></metadata><data><meanElements><EPOCH>2024-11-15T21:26:44.919744</EPOCH><MEAN_MOTION>13.12444042</MEAN_MOTION><ECCENTRICITY>.0001646</ECCENTRICITY><INCLINATION>87.8864</INCLINATION><RA_OF_ASC_NODE>105.8066</RA_OF_ASC_NODE><ARG_OF_PERICENTER>97.3252</ARG_OF_PERICENTER><MEAN_ANOMALY>262.8064</MEAN_ANOMALY></meanElements><tleParameters><EPHEMERIS_TYPE>0</EPHEMERIS_TYPE><CLASSIFICATION_TYPE>U</CLASSIFICATION_TYPE><NORAD_CAT_ID>55141</NORAD_CAT_ID><ELEMENT_SET_NO>999</ELEMENT_SET_NO><REV_AT_EPOCH>9220</REV_AT_EPOCH><BSTAR>-.10838E-2</BSTAR><MEAN_MOTION_DOT>-.377E-5</MEAN_MOTION_DOT><MEAN_MOTION_DDOT>0</MEAN_MOTION_DDOT></tleParameters></data></segment></body></omm>
<omm id="CCSDS_OMM_VERS" version="2.0">
<header><CREATION_DATE/><ORIGINATOR/></header><body><segment><metadata><OBJECT_NAME>ONEWEB-0541</OBJECT_NAME><OBJECT_ID>2023-004C</OBJECT_ID><CENTER_NAME>EARTH</CENTER_NAME><REF_FRAME>TEME</REF_FRAME><TIME_SYSTEM>UTC</TIME_SYSTEM><MEAN_ELEMENT_THEORY>SGP4</MEAN_ELEMENT_THEORY></metadata><data><meanElements><EPOCH>2024-11-15T22:17:51.650592</EPOCH><MEAN_MOTION>13.11418673</MEAN_MOTION><ECCENTRICITY>.0001504</ECCENTRICITY><INCLINATION>87.8882</INCLINATION><RA_OF_ASC_NODE>136.2620</RA_OF_ASC_NODE><ARG_OF_PERICENTER>90.5193</ARG_OF_PERICENTER><MEAN_ANOMALY>269.6108</MEAN_ANOMALY></meanElements><tleParameters><EPHEMERIS_TYPE>0</EPHEMERIS_TYPE><CLASSIFICATION_TYPE>U</CLASSIFICATION_TYPE><NORAD_CAT_ID>55142</NORAD_CAT_ID><ELEMENT_SET_NO>999</ELEMENT_SET_NO><REV_AT_EPOCH>9015</REV_AT_EPOCH><BSTAR>.62938E-3</BSTAR><MEAN_MOTION_DOT>.236E-5</MEAN_MOTION_DOT><MEAN_MOTION_DDOT>0</MEAN_MOTION_DDOT></tleParameters></data></segment></body></omm>
<omm id="CCSDS_OMM_VERS" version="2.0">
<header><CREATION_DATE/><ORIGINATOR/></header><body><segment><metadata><OBJECT_NAME>ONEWEB-0543</OBJECT_NAME><OBJECT_ID>2023-004D</OBJECT_ID><CENTER_NAME>EARTH</CENTER_NAME><REF_FRAME>TEME</REF_FRAME><TIME_SYSTEM>UTC</TIME_SYSTEM><MEAN_ELEMENT_THEORY>SGP4</MEAN_ELEMENT_THEORY></metadata><data><meanElements><EPOCH>2024-11-15T21:49:37.329312</EPOCH><MEAN_MOTION>13.18680847</MEAN_MOTION><ECCENTRICITY>.0001818</ECCENTRICITY><INCLINATION>87.9092</INCLINATION><RA_OF_ASC_NODE>90.6103</RA_OF_ASC_NODE><ARG_OF_PERICENTER>90.7261</ARG_OF_PERICENTER><MEAN_ANOMALY>269.4079</MEAN_ANOMALY></meanElements><tleParameters><EPHEMERIS_TYPE>0</EPHEMERIS_TYPE><CLASSIFICATION_TYPE>U</CLASSIFICATION_TYPE><NORAD_CAT_ID>55143</NORAD_CAT_ID><ELEMENT_SET_NO>999</ELEMENT_SET_NO><REV_AT_EPOCH>9348</REV_AT_EPOCH><BSTAR>.46194E-2</BSTAR><MEAN_MOTION_DOT>.1834E-4</MEAN_MOTION_DOT><MEAN_MOTION_DDOT>0</MEAN_MOTION_DDOT></tleParameters></data></segment></body></omm>
<omm id="CCSDS_OMM_VERS" version="2.0">
<header><CREATION_DATE/><ORIGINATOR/></header><body><segment><metadata><OBJECT_NAME>ONEWEB-0544</OBJECT_NAME><OBJECT_ID>2023-004E</OBJECT_ID><CENTER_NAME>EARTH</CENTER_NAME><REF_FRAME>TEME</REF_FRAME><TIME_SYSTEM>UTC</TIME_SYSTEM><MEAN_ELEMENT_THEORY>SGP4</MEAN_ELEMENT_THEORY></metadata><data><meanElements><EPOCH>2024-11-15T21:40:29.499744</EPOCH><MEAN_MOTION>13.18683125</MEAN_MOTION><ECCENTRICITY>.0001527</ECCENTRICITY><INCLINATION>87.9091</INCLINATION><RA_OF_ASC_NODE>90.5982</RA_OF_ASC_NODE><ARG_OF_PERICENTER>91.9521</ARG_OF_PERICENTER><MEAN_ANOMALY>268.1786</MEAN_ANOMALY></meanElements><tleParameters><EPHEMERIS_TYPE>0</EPHEMERIS_TYPE><CLASSIFICATION_TYPE>U</CLASSIFICATION_TYPE><NORAD_CAT_ID>55144</NORAD_CAT_ID><ELEMENT_SET_NO>999</ELEMENT_SET_NO><REV_AT_EPOCH>9348</REV_AT_EPOCH><BSTAR>-.30281E-3</BSTAR><MEAN_MOTION_DOT>-.106E-5</MEAN_MOTION_DOT><MEAN_MOTION_DDOT>0</MEAN_MOTION_DDOT></tleParameters></data></segment></body></omm>

</ndm>
